OBJECT_NAME,OBJECT_ID,EPOCH,MEAN_MOTION,ECCENTRICITY,INCLINATION,RA_OF_ASC_NODE,ARG_OF_PERICENTER,MEAN_ANOMALY,EPHEMERIS_TYPE,CLASSIFICATION_TYPE,NORAD_CAT_ID,ELEMENT_SET_NO,REV_AT_EPOCH,BSTAR,MEAN_MOTION_DOT,MEAN_MOTION_DDOT
STARLINK-31493,2024-057K,2026-07-13T09:12:01.995552,15.27572633,.00010408,43.0014,197.1044,270.1640,89.9093,0,U,59329,999,12906,.3021168E-5,-.179E-5,0
STARLINK-31634,2024-057L,2026-07-13T00:24:05.625792,15.27580194,.00015409,43.0016,199.5105,264.1188,95.9488,0,U,59330,999,12900,.32033456E-4,.619E-5,0
STARLINK-31633,2024-057M,2026-07-13T09:45:19.842624,15.27581292,.00017262,43.0026,197.2776,273.0597,87.0057,0,U,59331,999,12906,.57542301E-4,.1322E-4,0
STARLINK-31594,2024-057N,2026-07-13T09:30:30.034080,15.27581387,.00010631,42.9997,208.4460,280.7861,79.2871,0,U,59332,999,12893,.80978376E-4,.1967E-4,0
STARLINK-31572,2024-057P,2026-07-13T09:34:11.876448,15.27579414,.00012827,42.9993,208.4632,278.5765,81.4941,0,U,59333,999,12893,.37668172E-4,.775E-5,0
STARLINK-31573,2024-057Q,2026-07-13T10:12:52.802496,15.27578460,.0001039,42.9997,196.5575,287.8085,72.2653,0,U,59334,999,12907,.29352049E-4,.546E-5,0
STARLINK-31588,2024-057R,2026-07-13T10:22:07.978656,15.27567034,.00014836,43.0005,196.6087,284.4279,75.6408,0,U,59335,999,12907,.93833479E-4,.232E-4,0
STARLINK-31596,2024-057S,2026-07-13T08:53:31.189632,15.27578602,.00010852,42.9995,197.0058,278.0873,81.9855,0,U,59336,999,12906,.18673593E-4,.252E-5,0
STARLINK-31612,2024-057T,2026-07-13T01:36:02.699424,15.27577724,.00011992,43.0028,199.0297,274.5074,85.5640,0,U,59337,999,12901,.1426166E-4,.13E-5,0
STARLINK-31550,2024-057U,2026-07-13T02:13:05.913120,15.27560725,.00012198,42.9999,199.2201,286.3248,73.7469,0,U,59338,999,12901,-.6857993E-4,-.2147E-4,0
STARLINK-31473,2024-057V,2026-07-13T10:44:19.722336,15.27578972,.00009107,43.0006,196.7215,252.5385,107.5368,0,U,59339,999,12907,.20764414E-4,.309E-5,0
STARLINK-31562,2024-057W,2026-07-13T09:53:50.618688,15.27597991,.00010382,43.0008,212.0415,286.8744,73.1994,0,U,59340,999,12889,.11350192E-3,.2864E-4,0
STARLINK-31600,2024-057X,2026-07-13T09:16:24.045888,15.27586165,.0000736,42.9972,204.9118,5.1970,354.8890,0,U,59341,999,12897,-.1755805E-3,-.5091E-4,0
STARLINK-31628,2024-057Y,2026-07-13T11:13:55.733088,15.27583062,.00013304,43.0034,196.8820,274.5371,85.5329,0,U,59342,999,12907,.47611703E-4,.1048E-4,0
STARLINK-31605,2024-060A,2026-07-13T05:10:15.176352,15.27579303,.0001307,42.9997,260.2889,258.8699,101.2006,0,U,59348,999,12932,.18298E-4,.241E-5,0
STARLINK-31532,2024-060B,2026-07-13T05:41:28.318848,15.27594771,.0000959,42.9992,270.8367,248.0997,111.9753,0,U,59349,999,12931,.12842E-3,.3275E-4,0
STARLINK-31593,2024-060C,2026-07-13T12:49:42.915936,15.27565887,.0000987,43.0009,268.7681,224.6114,135.4658,0,U,59350,999,12931,.1394E-3,.3574E-4,0
STARLINK-31555,2024-060D,2026-07-13T05:52:34.215744,15.27579528,.0001425,43.0037,270.8976,286.2509,73.8186,0,U,59351,999,12931,-.50383E-5,-.401E-5,0
STARLINK-31561,2024-060E,2026-07-13T06:29:21.994080,15.27580545,.0001429,43.0029,270.2267,264.9210,95.1479,0,U,59352,999,12927,.62419E-4,.1456E-4,0
STARLINK-31413,2024-060F,2026-07-13T06:49:43.379040,15.27579784,.0001858,43.0013,270.3363,275.8068,84.2572,0,U,59353,999,12927,.25833E-4,.449E-5,0
STARLINK-31422,2024-060G,2026-07-13T12:40:39.159264,15.27582953,.0001251,43.0027,269.5807,275.8167,84.2542,0,U,59354,999,12930,.90644E-4,.2233E-4,0
STARLINK-31416,2024-060H,2026-07-13T05:47:01.390848,15.27578637,.0001323,43.0011,270.8640,275.4946,84.5755,0,U,59355,999,12926,.22776E-4,.365E-5,0
STARLINK-31552,2024-060J,2026-07-13T06:18:28.848096,15.27578364,.0000945,43.0001,271.0417,201.5830,158.4982,0,U,59356,999,12926,.51766E-4,.1163E-4,0
STARLINK-31557,2024-060K,2026-07-13T15:34:38.268192,15.27580574,.0001222,43.0020,264.4092,257.0874,102.9841,0,U,59357,999,12937,.57889E-4,.1331E-4,0
STARLINK-31559,2024-060L,2026-07-13T07:00:49.859136,15.27591485,.0002251,42.9991,270.3892,279.4018,80.6579,0,U,59358,999,12927,.95594E-6,-.236E-5,0
STARLINK-31501,2024-060M,2026-07-13T12:23:59.976096,15.27577845,.0001067,43.0003,269.4952,242.1871,117.8873,0,U,59359,999,12930,.2134E-4,.325E-5,0
STARLINK-31549,2024-060N,2026-07-13T13:00:48.405024,15.27614826,.0002088,43.0032,268.8327,294.5508,65.5126,0,U,59360,999,12931,-.26393E-3,-.7526E-4,0
STARLINK-31560,2024-060P,2026-07-12T12:42:22.295808,15.27597560,.0001226,43.0007,274.9806,242.4057,117.6671,0,U,59361,999,12915,.23678E-4,.39E-5,0
STARLINK-31571,2024-060Q,2026-07-13T06:01:49.522368,15.27578082,.000221,43.0035,270.9422,289.2512,70.8101,0,U,59362,999,12926,.23164E-4,.375E-5,0
STARLINK-31553,2024-060R,2026-07-13T05:46:34.529088,15.27569972,.0001279,43.0047,263.9302,262.9586,97.1120,0,U,59363,999,12934,.28215E-6,-.254E-5,0
