STARLINK-31493          
1 59329U 24057K   26194.38335643 -.00000179  00000+0  30212-5 0  9993
2 59329  43.0014 197.1044 0001040 270.1640  89.9093 15.27572633129060
STARLINK-31634          
1 59330U 24057L   26194.01673178  .00000619  00000+0  32033-4 0  9993
2 59330  43.0016 199.5105 0001540 264.1188  95.9488 15.27580194129003
STARLINK-31633          
1 59331U 24057M   26194.40647966  .00001322  00000+0  57542-4 0  9997
2 59331  43.0026 197.2776 0001726 273.0597  87.0057 15.27581292129063
STARLINK-31594          
1 59332U 24057N   26194.39618095  .00001967  00000+0  80978-4 0  9991
2 59332  42.9997 208.4460 0001063 280.7861  79.2871 15.27581387128934
STARLINK-31572          
1 59333U 24057P   26194.39874857  .00000775  00000+0  37668-4 0  9996
2 59333  42.9993 208.4632 0001282 278.5765  81.4941 15.27579414128934
STARLINK-31573          
1 59334U 24057Q   26194.42561114  .00000546  00000+0  29352-4 0  9997
2 59334  42.9997 196.5575 0001039 287.8085  72.2653 15.27578460129074
STARLINK-31588          
1 59335U 24057R   26194.43203679  .00002320  00000+0  93833-4 0  9995
2 59335  43.0005 196.6087 0001483 284.4279  75.6408 15.27567034129077
STARLINK-31596          
1 59336U 24057S   26194.37049988  .00000252  00000+0  18674-4 0  9992
2 59336  42.9995 197.0058 0001085 278.0873  81.9855 15.27578602129062
STARLINK-31612          
1 59337U 24057T   26194.06669791  .00000130  00000+0  14262-4 0  9993
2 59337  43.0028 199.0297 0001199 274.5074  85.5640 15.27577724129010
STARLINK-31550          
1 59338U 24057U   26194.09242955 -.00002147  00000+0 -68580-4 0  9990
2 59338  42.9999 199.2201 0001219 286.3248  73.7469 15.27560725129011
STARLINK-31473          
1 59339U 24057V   26194.44745049  .00000309  00000+0  20764-4 0  9990
2 59339  43.0006 196.7215 0000910 252.5385 107.5368 15.27578972129077
STARLINK-31562          
1 59340U 24057W   26194.41239142  .00002864  00000+0  11350-3 0  9999
2 59340  43.0008 212.0415 0001038 286.8744  73.1994 15.27597991128890
STARLINK-31600          
1 59341U 24057X   26194.38638942 -.00005091  00000+0 -17558-3 0  9990
2 59341  42.9972 204.9118 0000736   5.1970 354.8890 15.27586165128970
STARLINK-31628          
1 59342U 24057Y   26194.46800617  .00001048  00000+0  47612-4 0  9991
2 59342  43.0034 196.8820 0001330 274.5371  85.5329 15.27583062129079
STARLINK-31605          
1 59348U 24060A   26194.21545343  .00000241  00000+0  18298-4 0  9998
2 59348  42.9997 260.2889 0001307 258.8699 101.2006 15.27579303129323
STARLINK-31532          
1 59349U 24060B   26194.23713332  .00003275  00000+0  12842-3 0  9994
2 59349  42.9992 270.8367 0000959 248.0997 111.9753 15.27594771129313
STARLINK-31593          
1 59350U 24060C   26194.53452449  .00003574  00000+0  13940-3 0  9990
2 59350  43.0009 268.7681 0000987 224.6114 135.4658 15.27565887129314
STARLINK-31555          
1 59351U 24060D   26194.24484046 -.00000401  00000+0 -50383-5 0  9999
2 59351  43.0037 270.8976 0001425 286.2509  73.8186 15.27579528129315
STARLINK-31561          
1 59352U 24060E   26194.27039345  .00001456  00000+0  62419-4 0  9992
2 59352  43.0029 270.2267 0001429 264.9210  95.1479 15.27580545129278
STARLINK-31413          
1 59353U 24060F   26194.28452985  .00000449  00000+0  25833-4 0  9993
2 59353  43.0013 270.3363 0001858 275.8068  84.2572 15.27579784129274
STARLINK-31422          
1 59354U 24060G   26194.52823101  .00002233  00000+0  90644-4 0  9998
2 59354  43.0027 269.5807 0001251 275.8167  84.2542 15.27582953129303
STARLINK-31416          
1 59355U 24060H   26194.24098832  .00000365  00000+0  22776-4 0  9998
2 59355  43.0011 270.8640 0001323 275.4946  84.5755 15.27578637129266
STARLINK-31552          
1 59356U 24060J   26194.26283389  .00001163  00000+0  51766-4 0  9992
2 59356  43.0001 271.0417 0000945 201.5830 158.4982 15.27578364129262
STARLINK-31557          
1 59357U 24060K   26194.64905403  .00001331  00000+0  57889-4 0  9992
2 59357  43.0020 264.4092 0001222 257.0874 102.9841 15.27580574129378
STARLINK-31559          
1 59358U 24060L   26194.29224374 -.00000236  00000+0  95594-6 0  9996
2 59358  42.9991 270.3892 0002251 279.4018  80.6579 15.27591485129271
STARLINK-31501          
1 59359U 24060M   26194.51666639  .00000325  00000+0  21340-4 0  9990
2 59359  43.0003 269.4952 0001067 242.1871 117.8873 15.27577845129300
STARLINK-31549          
1 59360U 24060N   26194.54222691 -.00007526  00000+0 -26393-3 0  9995
2 59360  43.0032 268.8327 0002088 294.5508  65.5126 15.27614826129317
STARLINK-31560          
1 59361U 24060P   26193.52942472  .00000390  00000+0  23678-4 0  9993
2 59361  43.0007 274.9806 0001226 242.4057 117.6671 15.27597560129155
STARLINK-31571          
1 59362U 24060Q   26194.25126762  .00000375  00000+0  23164-4 0  9994
2 59362  43.0035 270.9422 0002210 289.2512  70.8101 15.27578082129264
STARLINK-31553          
1 59363U 24060R   26194.24067742 -.00000254  00000+0  28215-6 0  9997
2 59363  43.0047 263.9302 0001279 262.9586  97.1120 15.27569972129340
